API VERSION: 1.2
API SOURCE: NASA/JPL Horizons API



*******************************************************************************
Ephemeris / API_USER Fri Apr  3 11:26:04 2026 Pasadena, USA      / Horizons
*******************************************************************************
Target body name: Mercury (199)                   {source: DE441}
Center body name: Earth (399)                     {source: DE441}
Center-site name: BODY CENTER
*******************************************************************************
Start time      : A.D. 2026-Apr-18 13:16:59.9998 TDB
Stop  time      : A.D. 2026-Apr-20 13:16:59.9998 TDB
Step-size       : 60 minutes
*******************************************************************************
Center geodetic : 0.0, 0.0, 0.0                   {E-lon(deg),Lat(deg),Alt(km)}
Center cylindric: 0.0, 0.0, 0.0                   {E-lon(deg),Dxy(km),Dz(km)}
Center radii    : 6378.137, 6378.137, 6356.752 km {Equator_a, b, pole_c}
Output units    : AU-D
Calendar mode   : Mixed Julian/Gregorian
Output type     : GEOMETRIC cartesian states
Output format   : 3 (position, velocity, LT, range, range-rate)
EOP file        : eop.260402.p260629
EOP coverage    : DATA-BASED 1962-JAN-20 TO 2026-APR-02. PREDICTS-> 2026-JUN-28
Reference frame : ICRF
*******************************************************************************
            JDTDB,            Calendar Date (TDB),                      X,                      Y,                      Z,                     VX,                     VY,                     VZ,                     LT,                     RG,                     RR,
**************************************************************************************************************************************************************************************************************************************************************************
$$SOE
2461150.303472220, A.D. 2026-Apr-19 19:16:59.9998,  1.102940701654405E+00,  1.359655911471286E-01,  3.503463902820924E-03,  1.011672783810832E-02,  2.884252141377144E-02,  1.212126863626034E-02,  6.418306022864652E-03,  1.111295238719765E+00,  1.360773201813735E-02,
2461150.345138886, A.D. 2026-Apr-19 20:16:59.9998,  1.103361295552598E+00,  1.371682365916415E-01,  4.009069004271395E-03,  1.007175437521269E-02,  2.888445229045552E-02,  1.214777494664719E-02,  6.421579984397963E-03,  1.111862107586839E+00,  1.360196962045286E-02,
2461150.386805553, A.D. 2026-Apr-19 21:16:59.9998,  1.103780012442614E+00,  1.383726281999537E-01,  4.515778373557282E-03,  1.002663141206991E-02,  2.892633722775653E-02,  1.217427347014291E-02,  6.424852556350811E-03,  1.112428735855515E+00,  1.359618327406238E-02,
2461150.428472220, A.D. 2026-Apr-19 22:16:59.9998,  1.104196846091074E+00,  1.395787640518676E-01,  5.023591683442264E-03,  9.981358746806437E-03,  2.896817593473971E-02,  1.220076407305805E-02,  6.428123732944878E-03,  1.112995122525307E+00,  1.359037285297750E-02,
2461150.470138886, A.D. 2026-Apr-19 23:16:59.9998,  1.104611790256176E+00,  1.407866422150336E-01,  5.532508601103644E-03,  9.935936177138734E-03,  2.900996811899224E-02,  1.222724662093565E-02,  6.431393508371426E-03,  1.113561266590465E+00,  1.358453823035128E-02,
2461150.511805553, A.D. 2026-Apr-20 00:16:59.9998,  1.105024838687682E+00,  1.419962607448866E-01,  6.042528788100206E-03,  9.890363500377598E-03,  2.905171348661300E-02,  1.225372097854522E-02,  6.434661876791089E-03,  1.114127167039931E+00,  1.357867927847605E-02,
2461150.553472220, A.D. 2026-Apr-20 01:16:59.9998,  1.105435985126900E+00,  1.432076176845849E-01,  6.553651900340018E-03,  9.844640513432540E-03,  2.909341174220239E-02,  1.228018700987680E-02,  6.437928832333661E-03,  1.114692822857313E+00,  1.357279586878123E-02,
2461150.595138886, A.D. 2026-Apr-20 02:16:59.9998,  1.105845223306667E+00,  1.444207110649468E-01,  7.065877588047630E-03,  9.798767012816293E-03,  2.913506258885197E-02,  1.230664457813488E-02,  6.441194369097895E-03,  1.115258233020840E+00,  1.356688787183115E-02,
2461150.636805553, A.D. 2026-Apr-20 03:16:59.9998,  1.106252546951335E+00,  1.456355389043877E-01,  7.579205495731337E-03,  9.752742794649515E-03,  2.917666572813423E-02,  1.233309354573238E-02,  6.444458481151290E-03,  1.115823396503333E+00,  1.356095515732296E-02,
2461150.678472220, A.D. 2026-Apr-20 04:16:59.9998,  1.106657949776752E+00,  1.468520992088569E-01,  8.093635262150048E-03,  9.706567654665481E-03,  2.921822086009225E-02,  1.235953377428464E-02,  6.447721162529885E-03,  1.116388312272163E+00,  1.355499759408455E-02,
2461150.720138886, A.D. 2026-Apr-20 05:16:59.9998,  1.107061425490246E+00,  1.480703899717735E-01,  8.609166520279951E-03,  9.660241388215045E-03,  2.925972768322929E-02,  1.238596512460329E-02,  6.450982407238047E-03,  1.116952979289219E+00,  1.354901505007253E-02,
2461150.761805553, A.D. 2026-Apr-20 06:16:59.9998,  1.107462967790610E+00,  1.492904091739619E-01,  9.125798897280817E-03,  9.613763790271587E-03,  2.930118589449854E-02,  1.241238745669022E-02,  6.454242209248262E-03,  1.117517396510868E+00,  1.354300739237019E-02,
2461150.803472220, A.D. 2026-Apr-20 07:16:59.9998,  1.107862570368089E+00,  1.505121547835869E-01,  9.643532014462211E-03,  9.567134655436189E-03,  2.934259518929263E-02,  1.243880062973146E-02,  6.457500562500927E-03,  1.118081562887924E+00,  1.353697448718561E-02,
2461150.845138886, A.D. 2026-Apr-20 08:16:59.9998,  1.108260226904360E+00,  1.517356247560890E-01,  1.016236548724934E-02,  9.520353777942874E-03,  2.938395526143329E-02,  1.246520450209106E-02,  6.460757460904135E-03,  1.118645477365604E+00,  1.353091619984970E-02,
2461150.886805553, A.D. 2026-Apr-20 09:16:59.9998,  1.108655931072518E+00,  1.529608170341181E-01,  1.068229892514872E-02,  9.473420951663961E-03,  2.942526580316089E-02,  1.249159893130497E-02,  6.464012898333461E-03,  1.119209138883499E+00,  1.352483239481430E-02,
2461150.928472220, A.D. 2026-Apr-20 10:16:59.9998,  1.109049676537065E+00,  1.541877295474676E-01,  1.120333193171345E-02,  9.426335970115595E-03,  2.946652650512405E-02,  1.251798377407496E-02,  6.467266868631767E-03,  1.119772546375532E+00,  1.351872293565036E-02,
2461150.970138886, A.D. 2026-Apr-20 11:16:59.9998,  1.109441456953888E+00,  1.554163602130081E-01,  1.172546410450836E-02,  9.379098626463312E-03,  2.950773705636913E-02,  1.254435888626235E-02,  6.470519365608964E-03,  1.120335698769923E+00,  1.351258768504612E-02,
2461151.011805553, A.D. 2026-Apr-20 12:16:59.9998,  1.109831265970252E+00,  1.566467069346201E-01,  1.224869503507506E-02,  9.331708713527863E-03,  2.954889714432983E-02,  1.257072412288199E-02,  6.473770383041821E-03,  1.120898594989152E+00,  1.350642650480536E-02,
2461151.053472220, A.D. 2026-Apr-20 13:16:59.9998,  1.110219097224782E+00,  1.578787676031270E-01,  1.277302430889608E-02,  9.284166023790954E-03,  2.959000645481667E-02,  1.259707933809599E-02,  6.477019914673740E-03,  1.121461233949924E+00,  1.350023925584559E-02,
